{
  "type": "FeatureCollection",
  "features": [
    {
      "type": "Feature",
      "properties": {
        "norad_id": 28890,
        "name": "BEIJING 1",
        "group": "dmc",
        "lat": -7.653137991296901,
        "lon": 129.8562916322952,
        "alt_km": 689.3584605191018,
        "timestamp": "2025-12-27T04:40:45.166593+00:00",
        "meta_object_name": "BEIJING 1",
        "meta_object_id": "2005-043A",
        "meta_epoch": "2025-12-26T22:09:01.541664",
        "meta_mean_motion": 14.63378708,
        "meta_eccentricity": 0.0015868,
        "meta_inclination": 98.2664,
        "meta_ra_of_asc_node": 128.4643,
        "meta_arg_of_pericenter": 99.6233,
        "meta_mean_anomaly": 260.6763,
        "meta_ephemeris_type": 0,
        "meta_classification_type": "U",
        "meta_norad_cat_id": 28890,
        "meta_element_set_no": 999,
        "meta_rev_at_epoch": 7545,
        "meta_bstar": 8.2898487e-05,
        "meta_mean_motion_dot": 3.8e-06,
        "meta_mean_motion_ddot": 0,
        "tle_line1": "1 28890U 05043A   25360.92293451  .00000380  00000+0  82898-4 0  9999",
        "tle_line2": "2 28890  98.2664 128.4643 0015868  99.6233 260.6763 14.63378708 75450"
      },
      "geometry": {
        "type": "Point",
        "coordinates": [
          129.8562916322952,
          -7.653137991296901
        ]
      }
    },
    {
      "type": "Feature",
      "properties": {
        "norad_id": 33320,
        "name": "HUANJING 1A (HJ-1A)",
        "group": "dmc",
        "lat": -19.182401862643008,
        "lon": -8.427558994026764,
        "alt_km": 610.4476291286737,
        "timestamp": "2025-12-27T04:40:45.166617+00:00",
        "meta_object_name": "HUANJING 1A (HJ-1A)",
        "meta_object_id": "2008-041A",
        "meta_epoch": "2025-12-26T23:54:33.859008",
        "meta_mean_motion": 14.83439235,
        "meta_eccentricity": 0.0019003,
        "meta_inclination": 97.6555,
        "meta_ra_of_asc_node": 348.6999,
        "meta_arg_of_pericenter": 348.6851,
        "meta_mean_anomaly": 11.3933,
        "meta_ephemeris_type": 0,
        "meta_classification_type": "U",
        "meta_norad_cat_id": 33320,
        "meta_element_set_no": 999,
        "meta_rev_at_epoch": 93287,
        "meta_bstar": 0.00024177131,
        "meta_mean_motion_dot": 1.94e-05,
        "meta_mean_motion_ddot": 0,
        "tle_line1": "1 33320U 08041A   25360.99622522  .00001940  00000+0  24177-3 0  9994",
        "tle_line2": "2 33320  97.6555 348.6999 0019003 348.6851  11.3933 14.83439235932877"
      },
      "geometry": {
        "type": "Point",
        "coordinates": [
          -8.427558994026764,
          -19.182401862643008
        ]
      }
    },
    {
      "type": "Feature",
      "properties": {
        "norad_id": 33321,
        "name": "HUANJING 1B (HJ-1B)",
        "group": "dmc",
        "lat": 7.6388850505034105,
        "lon": 173.58116796774203,
        "alt_km": 643.0805997700336,
        "timestamp": "2025-12-27T04:40:45.166632+00:00",
        "meta_object_name": "HUANJING 1B (HJ-1B)",
        "meta_object_id": "2008-041B",
        "meta_epoch": "2025-12-26T23:02:56.150304",
        "meta_mean_motion": 14.82860511,
        "meta_eccentricity": 0.00376229,
        "meta_inclination": 97.6413,
        "meta_ra_of_asc_node": 352.3252,
        "meta_arg_of_pericenter": 30.6752,
        "meta_mean_anomaly": 329.665,
        "meta_ephemeris_type": 0,
        "meta_classification_type": "U",
        "meta_norad_cat_id": 33321,
        "meta_element_set_no": 999,
        "meta_rev_at_epoch": 93288,
        "meta_bstar": 0.00021365759,
        "meta_mean_motion_dot": 1.7e-05,
        "meta_mean_motion_ddot": 0,
        "tle_line1": "1 33321U 08041B   25360.96037211  .00001700  00000+0  21366-3 0  9998",
        "tle_line2": "2 33321  97.6413 352.3252 0037622  30.6752 329.6650 14.82860511932886"
      },
      "geometry": {
        "type": "Point",
        "coordinates": [
          173.58116796774203,
          7.6388850505034105
        ]
      }
    },
    {
      "type": "Feature",
      "properties": {
        "norad_id": 33446,
        "name": "YAOGAN-4",
        "group": "dmc",
        "lat": 74.62715696759814,
        "lon": -99.26576250588852,
        "alt_km": 622.3806561468191,
        "timestamp": "2025-12-27T04:40:45.166644+00:00",
        "meta_object_name": "YAOGAN-4",
        "meta_object_id": "2008-061A",
        "meta_epoch": "2025-12-26T18:36:57.311712",
        "meta_mean_motion": 14.82723581,
        "meta_eccentricity": 0.00129631,
        "meta_inclination": 97.9198,
        "meta_ra_of_asc_node": 290.7385,
        "meta_arg_of_pericenter": 273.4167,
        "meta_mean_anomaly": 86.5564,
        "meta_ephemeris_type": 0,
        "meta_classification_type": "U",
        "meta_norad_cat_id": 33446,
        "meta_element_set_no": 999,
        "meta_rev_at_epoch": 92011,
        "meta_bstar": 0.00019776049,
        "meta_mean_motion_dot": 1.545e-05,
        "meta_mean_motion_ddot": 0,
        "tle_line1": "1 33446U 08061A   25360.77566333  .00001545  00000+0  19776-3 0  9998",
        "tle_line2": "2 33446  97.9198 290.7385 0012963 273.4167  86.5564 14.82723581920118"
      },
      "geometry": {
        "type": "Point",
        "coordinates": [
          -99.26576250588852,
          74.62715696759814
        ]
      }
    },
    {
      "type": "Feature",
      "properties": {
        "norad_id": 35681,
        "name": "DEIMOS-1",
        "group": "dmc",
        "lat": 15.56616536889106,
        "lon": -16.709281082036217,
        "alt_km": 646.4981869410494,
        "timestamp": "2025-12-27T04:40:45.166656+00:00",
        "meta_object_name": "DEIMOS-1",
        "meta_object_id": "2009-041A",
        "meta_epoch": "2025-12-26T23:03:11.086272",
        "meta_mean_motion": 14.74975897,
        "meta_eccentricity": 0.00024101,
        "meta_inclination": 97.7159,
        "meta_ra_of_asc_node": 160.9028,
        "meta_arg_of_pericenter": 58.2641,
        "meta_mean_anomaly": 301.8803,
        "meta_ephemeris_type": 0,
        "meta_classification_type": "U",
        "meta_norad_cat_id": 35681,
        "meta_element_set_no": 999,
        "meta_rev_at_epoch": 88149,
        "meta_bstar": 0.00019641637,
        "meta_mean_motion_dot": 1.273e-05,
        "meta_mean_motion_ddot": 0,
        "tle_line1": "1 35681U 09041A   25360.96054498  .00001273  00000+0  19642-3 0  9995",
        "tle_line2": "2 35681  97.7159 160.9028 0002410  58.2641 301.8803 14.74975897881496"
      },
      "geometry": {
        "type": "Point",
        "coordinates": [
          -16.709281082036217,
          15.56616536889106
        ]
      }
    },
    {
      "type": "Feature",
      "properties": {
        "norad_id": 35683,
        "name": "UK-DMC 2",
        "group": "dmc",
        "lat": -34.135254024409505,
        "lon": -49.68142212292231,
        "alt_km": 649.9323953602307,
        "timestamp": "2025-12-27T04:40:45.166667+00:00",
        "meta_object_name": "UK-DMC 2",
        "meta_object_id": "2009-041C",
        "meta_epoch": "2025-12-26T22:49:42.809088",
        "meta_mean_motion": 14.7565344,
        "meta_eccentricity": 0.00015926,
        "meta_inclination": 97.8572,
        "meta_ra_of_asc_node": 135.4536,
        "meta_arg_of_pericenter": 91.0711,
        "meta_mean_anomaly": 269.0681,
        "meta_ephemeris_type": 0,
        "meta_classification_type": "U",
        "meta_norad_cat_id": 35683,
        "meta_element_set_no": 999,
        "meta_rev_at_epoch": 88116,
        "meta_bstar": 0.00024146871,
        "meta_mean_motion_dot": 1.6e-05,
        "meta_mean_motion_ddot": 0,
        "tle_line1": "1 35683U 09041C   25360.95118992  .00001600  00000+0  24147-3 0  9996",
        "tle_line2": "2 35683  97.8572 135.4536 0001592  91.0711 269.0681 14.75653440881163"
      },
      "geometry": {
        "type": "Point",
        "coordinates": [
          -49.68142212292231,
          -34.135254024409505
        ]
      }
    },
    {
      "type": "Feature",
      "properties": {
        "norad_id": 40715,
        "name": "DMC3-FM1",
        "group": "dmc",
        "lat": 52.45509056255492,
        "lon": -142.23533794309722,
        "alt_km": 609.7939468410596,
        "timestamp": "2025-12-27T04:40:45.166678+00:00",
        "meta_object_name": "DMC3-FM1",
        "meta_object_id": "2015-032A",
        "meta_epoch": "2025-12-26T21:58:26.879232",
        "meta_mean_motion": 14.85464196,
        "meta_eccentricity": 0.00040796,
        "meta_inclination": 97.6678,
        "meta_ra_of_asc_node": 227.5912,
        "meta_arg_of_pericenter": 261.1687,
        "meta_mean_anomaly": 98.9067,
        "meta_ephemeris_type": 0,
        "meta_classification_type": "U",
        "meta_norad_cat_id": 40715,
        "meta_element_set_no": 999,
        "meta_rev_at_epoch": 56433,
        "meta_bstar": 0.00013208683,
        "meta_mean_motion_dot": 1.088e-05,
        "meta_mean_motion_ddot": 0,
        "tle_line1": "1 40715U 15032A   25360.91558888  .00001088  00000+0  13209-3 0  9990",
        "tle_line2": "2 40715  97.6678 227.5912 0004079 261.1687  98.9067 14.85464196564339"
      },
      "geometry": {
        "type": "Point",
        "coordinates": [
          -142.23533794309722,
          52.45509056255492
        ]
      }
    },
    {
      "type": "Feature",
      "properties": {
        "norad_id": 40716,
        "name": "DMC3-FM2",
        "group": "dmc",
        "lat": -65.79492659089192,
        "lon": -113.23179092360346,
        "alt_km": 616.5105119150385,
        "timestamp": "2025-12-27T04:40:45.166688+00:00",
        "meta_object_name": "DMC3-FM2",
        "meta_object_id": "2015-032B",
        "meta_epoch": "2025-12-26T22:30:48.867840",
        "meta_mean_motion": 14.85469134,
        "meta_eccentricity": 0.00045116,
        "meta_inclination": 97.6736,
        "meta_ra_of_asc_node": 229.067,
        "meta_arg_of_pericenter": 268.3837,
        "meta_mean_anomaly": 91.6862,
        "meta_ephemeris_type": 0,
        "meta_classification_type": "U",
        "meta_norad_cat_id": 40716,
        "meta_element_set_no": 999,
        "meta_rev_at_epoch": 56433,
        "meta_bstar": 0.0002089546,
        "meta_mean_motion_dot": 1.751e-05,
        "meta_mean_motion_ddot": 0,
        "tle_line1": "1 40716U 15032B   25360.93806560  .00001751  00000+0  20895-3 0  9992",
        "tle_line2": "2 40716  97.6736 229.0670 0004511 268.3837  91.6862 14.85469134564330"
      },
      "geometry": {
        "type": "Point",
        "coordinates": [
          -113.23179092360346,
          -65.79492659089192
        ]
      }
    },
    {
      "type": "Feature",
      "properties": {
        "norad_id": 40717,
        "name": "DMC3-FM3",
        "group": "dmc",
        "lat": 3.09897444415456,
        "lon": 51.37595144870701,
        "alt_km": 614.893209702278,
        "timestamp": "2025-12-27T04:40:45.166698+00:00",
        "meta_object_name": "DMC3-FM3",
        "meta_object_id": "2015-032C",
        "meta_epoch": "2025-12-26T23:02:08.232864",
        "meta_mean_motion": 14.85452214,
        "meta_eccentricity": 0.00038714,
        "meta_inclination": 97.6792,
        "meta_ra_of_asc_node": 230.7306,
        "meta_arg_of_pericenter": 269.7933,
        "meta_mean_anomaly": 90.2839,
        "meta_ephemeris_type": 0,
        "meta_classification_type": "U",
        "meta_norad_cat_id": 40717,
        "meta_element_set_no": 999,
        "meta_rev_at_epoch": 56434,
        "meta_bstar": 0.00011181298,
        "meta_mean_motion_dot": 9.12e-06,
        "meta_mean_motion_ddot": 0,
        "tle_line1": "1 40717U 15032C   25360.95981751  .00000912  00000+0  11181-3 0  9997",
        "tle_line2": "2 40717  97.6792 230.7306 0003871 269.7933  90.2839 14.85452214564349"
      },
      "geometry": {
        "type": "Point",
        "coordinates": [
          51.37595144870701,
          3.09897444415456
        ]
      }
    }
  ]
}